OSCAR 7 (AO-7)          
1 07530U 74089B   20342.49973035 -.00000023  00000-0  14125-3 0  9996
2 07530 101.8270 311.4265 0012463  31.7367  79.9375 12.53646381107671
UOSAT 2 (UO-11)         
1 14781U 84021B   20342.53604000  .00000238  00000-0  35233-4 0  9998
2 14781  97.5895 345.8933 0008398   2.9388 357.1875 14.83222182957481
LUSAT (LO-19)           
1 20442U 90005G   20342.40000288  .00000029  00000-0  27283-4 0  9996
2 20442  98.7154 290.4063 0012001  11.3501 348.7951 14.32969546613328
EYESAT A (AO-27)        
1 22825U 93061C   20342.53632314  .00000005  00000-0  19992-4 0  9995
2 22825  98.9249 349.3654 0007637 228.8336 131.2188 14.30100027418556
ITAMSAT (IO-26)         
1 22826U 93061D   20342.48209052  .00000018  00000-0  24764-4 0  9996
2 22826  98.9190 349.2377 0008326 216.1176 143.9444 14.30437239418789
RADIO ROSTO (RS-15)     
1 23439U 94085A   20342.51151743 -.00000037  00000-0  15882-3 0  9993
2 23439  64.8181 326.3833 0154344   9.7855 350.6018 11.27569521 68695
JAS-2 (FO-29)           
1 24278U 96046B   20342.49123620 -.00000017  00000-0  22333-4 0  9992
2 24278  98.5883  69.7234 0349272 286.8813  69.4309 13.53101119200288
TECHSAT 1B (GO-32)      
1 25397U 98043D   20342.40356833  .00000013  00000-0  25110-4 0  9990
2 25397  98.7486 282.7241 0000327 324.9557  35.1600 14.23696549164165
ISS (ZARYA)             
1 25544U 98067A   20342.69001051  .00002377  00000-0  50995-4 0  9994
2 25544  51.6438 209.9737 0001979 108.9608 356.0357 15.49164062258916
PCSAT (NO-44)           
1 26931U 01043C   20342.48156364 -.00000005  00000-0  29999-4 0  9995
2 26931  67.0527  55.8701 0007203 274.1988  85.8290 14.30597960  1790
SAUDISAT 1C (SO-50)     
1 27607U 02058C   20342.11339720  .00000075  00000-0  31233-4 0  9992
2 27607  64.5545 206.4691 0030344 110.2259 250.2111 14.75688131966192
CUTE-1 (CO-55)          
1 27844U 03031E   20342.49467451  .00000086  00000-0  58526-4 0  9997
2 27844  98.6819 347.6186 0008827 275.2141  84.8029 14.22273870904695
CUBESAT XI-IV (CO-57)   
1 27848U 03031J   20342.50145662  .00000064  00000-0  49069-4 0  9998
2 27848  98.6880 348.1925 0008747 289.5183  70.5050 14.21855910904538
MOZHAYETS 4 (RS-22)     
1 27939U 03042A   20342.57764272  .00000317  00000-0  65239-4 0  9990
2 27939  98.1147 115.3616 0013337 160.9784 199.1923 14.66919208919398
CUBESAT XI-V            
1 28895U 05043F   20342.35529875  .00000258  00000-0  58241-4 0  9998
2 28895  98.0333 114.1288 0018071  95.8429 264.4834 14.63837369805902
CUTE-1.7+APD II (CO-65) 
1 32785U 08021C   20342.49706470  .00000553  00000-0  65038-4 0  9993
2 32785  97.5906 323.0680 0011519 281.2958  78.6965 14.88580336683618
DELFI-C3 (DO-64)        
1 32789U 08021G   20342.39584488  .00003362  00000-0  22066-3 0  9993
2 32789  97.3995  19.0085 0013399  84.2484 276.0272 15.08237884687879
SEEDS II (CO-66)        
1 32791U 08021J   20342.46546732  .00000817  00000-0  87521-4 0  9994
2 32791  97.5542 329.1074 0011851 243.4895 116.5109 14.91203054684160
YUBILEINY (RS-30)       
1 32953U 08025A   20342.51678150  .00000028  00000-0  12906-3 0  9992
2 32953  82.5021 170.2982 0019732  37.0146 323.2289 12.43099033569131
KKS-1 (KISEKI)          
1 33499U 09002H   20342.50584201  .00000213  00000-0  39150-4 0  9993
2 33499  98.2923 201.8766 0007985 297.5918  62.4479 14.75590755638101
SWISSCUBE               
1 35932U 09051B   20342.48188667  .00000234  00000-0  63776-4 0  9998
2 35932  98.6073 170.3606 0006903 323.3696  36.7028 14.56459708595015
BEESAT-1                
1 35933U 09051C   20342.52441425  .00000197  00000-0  55207-4 0  9996
2 35933  98.6055 172.2663 0005349 340.0071  20.0915 14.56527065595097
ITUPSAT1                
1 35935U 09051E   20342.48350108  .00000180  00000-0  52506-4 0  9991
2 35935  98.6160 172.3977 0007624 337.1067  22.9788 14.55666585594846
XIWANG-1 (HOPE-1)       
1 36122U 09072B   20342.46716635 -.00000028  00000-0  37047-4 0  9997
2 36122 100.1093 325.2917 0007308 179.9497 180.1618 13.16357914527631
JUGNU                   
1 37839U 11058B   20342.25864272  .00000315  00000-0  25839-4 0  9992
2 37839  19.9624 314.7952 0019127 133.1495 256.0447 14.12697265473252
SRMSAT                  
1 37841U 11058D   20342.53771432  .00000303  00000-0  21634-4 0  9997
2 37841  19.9736  21.0076 0011894 346.5053 163.3088 14.10679782472608
M-CUBED & EXP-1 PRIME   
1 37855U 11061F   20342.51794032  .00003713  00000-0  18704-3 0  9996
2 37855 101.7264 160.3670 0169348 281.1693  77.0523 15.06858030497263
STRAND-1                
1 39090U 13009E   20342.54167921  .00000048  00000-0  31828-4 0  9998
2 39090  98.4387 183.1004 0010030 125.6832 234.5289 14.35157887407519
SOMP                    
1 39134U 13015E   20342.53156569  .00003878  00000-0  17897-3 0  9992
2 39134  64.8648  76.1633 0017058 220.2208 139.7659 15.21678565422005
BEESAT-3                
1 39135U 13015F   20342.53305632  .00003243  00000-0  16438-3 0  9996
2 39135  64.8681 102.2869 0021922 212.3044 147.6742 15.18669063421492
BEESAT-2                
1 39136U 13015G   20342.51788881  .00002990  00000-0  15394-3 0  9994
2 39136  64.8770 107.9560 0032597 264.5261  95.2147 15.18059842421385
ZACUBE-1 (TSHEPISOSAT)  
1 39417U 13066B   20342.49312020  .00000539  00000-0  73247-4 0  9996
2 39417  97.5763 330.9940 0060165  70.9853 289.7866 14.81374589380659
GOMX-1                  
1 39430U 13066Q   20342.50959355  .00000655  00000-0  12687-3 0  9990
2 39430  97.8046 270.6862 0151215 359.9614   0.1543 14.59494215375044
CUBEBUG-2 (LO-74)       
1 39440U 13066AA  20342.48879198  .00000404  00000-0  62449-4 0  9998
2 39440  97.6519 315.6202 0080917 137.6945 223.0545 14.76109611378104
FUNCUBE-1 (AO-73)       
1 39444U 13066AE  20342.52530836  .00000638  00000-0  83845-4 0  9992
2 39444  97.5688 333.3368 0059188  62.4523 298.2688 14.82251584379003
UWE-3                   
1 39446U 13066AG  20342.51963457  .00000448  00000-0  65298-4 0  9993
2 39446  97.6157 322.7542 0071253 104.9087 256.0029 14.78643252378144
SPROUT                  
1 39770U 14029E   20342.58909524  .00001659  00000-0  18646-3 0  9994
2 39770  97.9091  88.2584 0010197 116.8857 243.3402 14.88043423354807
UNISAT-6                
1 40012U 14033C   20342.55863275  .00000360  00000-0  60356-4 0  9993
2 40012  97.6892 188.8767 0058603 159.5718 200.7854 14.74202685347923
DUCHIFAT-1              
1 40021U 14033M   20342.56085951  .00001081  00000-0  11476-3 0  9990
2 40021  97.9556 274.9562 0014266  77.6460 282.6354 14.91087704351688
QB50P1                  
1 40025U 14033R   20342.54101692  .00000683  00000-0  77993-4 0  9997
2 40025  97.9225 266.8667 0013836  89.5791 270.7012 14.89266525350856
NUDT-PHONESAT           
1 40900U 15049B   20342.49112553  .00005621  00000-0  22747-3 0  9992
2 40900  97.4274 351.9989 0014162  94.3407  60.7917 15.25010549289554
ZDPS 2A                 
1 40901U 15049C   20342.46411747  .00002920  00000-0  14338-3 0  9993
2 40901  97.4628 345.9447 0014405 125.7039  32.1351 15.18776911288828
ZDPS 2B                 
1 40902U 15049D   20342.50528303  .00002919  00000-0  14333-3 0  9999
2 40902  97.4633 343.2616 0014476 122.9589 357.0861 15.18783773288808
XW-2A                   
1 40903U 15049E   20342.42137366  .00004930  00000-0  10999-3 0  9995
2 40903  97.2650  31.3408 0012765   2.7787 117.7208 15.43952071293151
KAITUO 1A               
1 40904U 15049F   20342.49122944  .00001150  00000-0  63388-4 0  9991
2 40904  97.4820 340.9818 0015329 137.7286  13.2636 15.15904134288457
2015-049G               
1 40905U 15049G   20342.50531041  .00000820  00000-0  47664-4 0  9998
2 40905  97.4924 338.1288 0016564 136.8980 348.4706 15.14734407288270
XW-2C                   
1 40906U 15049H   20342.50046214  .00001476  00000-0  79378-4 0  9997
2 40906  97.4819 341.3731 0015870 129.0345  22.2983 15.16341449288479
XW-2D                   
1 40907U 15049J   20342.46655443  .00001985  00000-0  10473-3 0  9998
2 40907  97.4807 341.0782 0015392 126.0852  27.7977 15.16611776288497
LILACSAT-2              
1 40908U 15049K   20342.47093087  .00001200  00000-0  69126-4 0  9990
2 40908  97.4978 339.1983 0016822 138.4288  13.7438 15.14205461288177
XW-2F                   
1 40910U 15049M   20342.52226469  .00002660  00000-0  13234-3 0  9990
2 40910  97.4712 343.9599 0015858 114.9909   3.6720 15.18378982288590
XW-2B                   
1 40911U 15049N   20342.51910641  .00001813  00000-0  96199-4 0  9993
2 40911  97.4808 341.8280 0015156 126.8335 354.2118 15.16533119288394
KAITUO 1B               
1 40912U 15049P   20342.50613741  .00002883  00000-0  13338-3 0  9995
2 40912  97.4474 348.2381 0016436  93.1878  30.9485 15.20827422289010
TIANWANG 1C (TW-1C)     
1 40926U 15051B   20342.42409745  .00113778  00000-0  62198-3 0  9995
2 40926  97.0574  36.2313 0004384 137.0846 234.0017 15.79530147294173
TIANWANG 1A (TW-1A)     
1 40928U 15051D   20342.55467771  .00007579  00000-0  16865-3 0  9995
2 40928  97.0947   6.1400 0008049 277.7214 233.6266 15.43882566292068
LAPAN-A2                
1 40931U 15052B   20342.05299023  .00000818  00000-0  24915-4 0  9993
2 40931   5.9975 184.5076 0012822 202.0778 157.8776 14.76654884280819
E-ST@R-II               
1 41459U 16025D   20342.53237437  .00002742  00000-0  13940-3 0  9997
2 41459  98.1198 101.7657 0162413 349.6601  10.1274 15.07069826253508
AAUSAT 4                
1 41460U 16025E   20342.32583246  .00004186  00000-0  20307-3 0  9997
2 41460  98.1197 104.5373 0150564 336.9207  22.5307 15.09655901253714
NUSAT-1 (FRESCO)        
1 41557U 16033B   20342.45893850  .00003659  00000-0  13401-3 0  9993
2 41557  97.4003  71.5763 0012991 188.7955 300.0538 15.28585070252190
BEESAT-4                
1 41619U 16040W   20342.21266985  .00003313  00000-0  13708-3 0  9994
2 41619  97.2983  37.4939 0009328 293.7925  66.2334 15.24605891235718
